[{"OBJECT_NAME":"STARLINK-3172","OBJECT_ID":"2022-005AM","EPOCH":"2026-03-09T21:48:44.375616","MEAN_MOTION":15.08839804,"ECCENTRICITY":0.00014327,"INCLINATION":53.2171,"RA_OF_ASC_NODE":298.1496,"ARG_OF_PERICENTER":83.4009,"MEAN_ANOMALY":276.7147,"EPHEMERIS_TYPE":0,"CLASSIFICATION_TYPE":"U","NORAD_CAT_ID":51139,"ELEMENT_SET_NO":999,"REV_AT_EPOCH":22877,"BSTAR":7.1308665e-5,"MEAN_MOTION_DOT":8.47e-6,"MEAN_MOTION_DDOT":0},{"OBJECT_NAME":"OBJECT R","OBJECT_ID":"2023-091R","EPOCH":"2026-03-09T23:14:08.723328","MEAN_MOTION":15.13803604,"ECCENTRICITY":0.00168604,"INCLINATION":97.5196,"RA_OF_ASC_NODE":124.2169,"ARG_OF_PERICENTER":118.5914,"MEAN_ANOMALY":241.7016,"EPHEMERIS_TYPE":0,"CLASSIFICATION_TYPE":"U","NORAD_CAT_ID":57181,"ELEMENT_SET_NO":999,"REV_AT_EPOCH":14867,"BSTAR":0.00029975355,"MEAN_MOTION_DOT":5.364e-5,"MEAN_MOTION_DDOT":0}]
